{"type": "FeatureCollection", "features": [{"type": "Feature", "properties": {"norad_id": 22490, "name": "SCD 1", "group": "resource", "lat": -7.2700297422256055, "lon": 43.58177142800757, "alt_km": 748.1910769380529, "timestamp": "2025-12-24T05:51:19.261993+00:00", "meta": {"OBJECT_NAME": "SCD 1", "OBJECT_ID": "1993-009B", "EPOCH": "2025-12-23T22:25:50.939904", "MEAN_MOTION": 14.46006137, "ECCENTRICITY": 0.00421806, "INCLINATION": 24.9677, "RA_OF_ASC_NODE": 209.5786, "ARG_OF_PERICENTER": 83.3098, "MEAN_ANOMALY": 299.9825, "EPHEMERIS_TYPE": 0, "CLASSIFICATION_TYPE": "U", "NORAD_CAT_ID": 22490, "ELEMENT_SET_NO": 999, "REV_AT_EPOCH": 73572, "BSTAR": 7.7574119e-05, "MEAN_MOTION_DOT": 4.69e-06, "MEAN_MOTION_DDOT": 0}, "tle": {"line1": "1 22490U 93009B   25357.93461736  .00000469  00000+0  77574-4 0  9991", "line2": "2 22490  24.9677 209.5786 0042180  83.3098 299.9825 14.46006137735727"}}, "geometry": {"type": "Point", "coordinates": [43.58177142800757, -7.2700297422256055]}}, {"type": "Feature", "properties": {"norad_id": 25397, "name": "TECHSAT 1B (GO-32)", "group": "resource", "lat": 80.51684862294141, "lon": -89.7300835178575, "alt_km": 802.3316816239385, "timestamp": "2025-12-24T05:51:19.262021+00:00", "meta": {"OBJECT_NAME": "TECHSAT 1B (GO-32)", "OBJECT_ID": "1998-043D", "EPOCH": "2025-12-23T22:42:18.147168", "MEAN_MOTION": 14.24380036, "ECCENTRICITY": 0.00016951, "INCLINATION": 98.9932, "RA_OF_ASC_NODE": 341.4173, "ARG_OF_PERICENTER": 39.0327, "MEAN_ANOMALY": 321.0973, "EPHEMERIS_TYPE": 0, "CLASSIFICATION_TYPE": "U", "NORAD_CAT_ID": 25397, "ELEMENT_SET_NO": 999, "REV_AT_EPOCH": 42638, "BSTAR": 5.3429861e-05, "MEAN_MOTION_DOT": 7.7e-07, "MEAN_MOTION_DDOT": 0}, "tle": {"line1": "1 25397U 98043D   25357.94604337  .00000077  00000+0  53430-4 0  9990", "line2": "2 25397  98.9932 341.4173 0001695  39.0327 321.0973 14.24380036426385"}}, "geometry": {"type": "Point", "coordinates": [-89.7300835178575, 80.51684862294141]}}, {"type": "Feature", "properties": {"norad_id": 25504, "name": "SCD 2", "group": "resource", "lat": -10.342242476034805, "lon": -85.97951429372232, "alt_km": 747.7279760299016, "timestamp": "2025-12-24T05:51:19.262053+00:00", "meta": {"OBJECT_NAME": "SCD 2", "OBJECT_ID": "1998-060A", "EPOCH": "2025-12-23T23:01:37.909920", "MEAN_MOTION": 14.4542914, "ECCENTRICITY": 0.00170587, "INCLINATION": 24.9953, "RA_OF_ASC_NODE": 72.7138, "ARG_OF_PERICENTER": 71.7341, "MEAN_ANOMALY": 89.7798, "EPHEMERIS_TYPE": 0, "CLASSIFICATION_TYPE": "U", "NORAD_CAT_ID": 25504, "ELEMENT_SET_NO": 999, "REV_AT_EPOCH": 43494, "BSTAR": 6.904706e-05, "MEAN_MOTION_DOT": 4.29e-06, "MEAN_MOTION_DDOT": 0}, "tle": {"line1": "1 25504U 98060A   25357.95946655  .00000429  00000+0  69047-4 0  9994", "line2": "2 25504  24.9953  72.7138 0017058  71.7341  89.7798 14.45429140434948"}}, "geometry": {"type": "Point", "coordinates": [-85.97951429372232, -10.342242476034805]}}, {"type": "Feature", "properties": {"norad_id": 25757, "name": "DLR-TUBSAT", "group": "resource", "lat": 21.77165882130013, "lon": -20.375719001644587, "alt_km": 724.8779666483288, "timestamp": "2025-12-24T05:51:19.262067+00:00", "meta": {"OBJECT_NAME": "DLR-TUBSAT", "OBJECT_ID": "1999-029B", "EPOCH": "2025-12-17T13:22:10.787520", "MEAN_MOTION": 14.52359578, "ECCENTRICITY": 0.00141996, "INCLINATION": 98.6566, "RA_OF_ASC_NODE": 336.2196, "ARG_OF_PERICENTER": 177.8976, "MEAN_ANOMALY": 182.2281, "EPHEMERIS_TYPE": 0, "CLASSIFICATION_TYPE": "U", "NORAD_CAT_ID": 25757, "ELEMENT_SET_NO": 999, "REV_AT_EPOCH": 40688, "BSTAR": 3.7650132e-05, "MEAN_MOTION_DOT": 1.05e-06, "MEAN_MOTION_DDOT": 0}, "tle": {"line1": "1 25757U 99029B   25351.55706930  .00000105  00000+0  37650-4 0  9996", "line2": "2 25757  98.6566 336.2196 0014199 177.8976 182.2281 14.52359578406886"}}, "geometry": {"type": "Point", "coordinates": [-20.375719001644587, 21.77165882130013]}}, {"type": "Feature", "properties": {"norad_id": 25994, "name": "TERRA", "group": "resource", "lat": 75.88564261250852, "lon": 15.629431741916832, "alt_km": 680.6119121768324, "timestamp": "2025-12-24T05:51:19.262078+00:00", "meta": {"OBJECT_NAME": "TERRA", "OBJECT_ID": "1999-068A", "EPOCH": "2025-12-23T22:04:04.329120", "MEAN_MOTION": 14.60913945, "ECCENTRICITY": 0.00034542, "INCLINATION": 97.9732, "RA_OF_ASC_NODE": 49.1928, "ARG_OF_PERICENTER": 72.2922, "MEAN_ANOMALY": 100.537, "EPHEMERIS_TYPE": 0, "CLASSIFICATION_TYPE": "U", "NORAD_CAT_ID": 25994, "ELEMENT_SET_NO": 999, "REV_AT_EPOCH": 38401, "BSTAR": 0.0001065379, "MEAN_MOTION_DOT": 4.77e-06, "MEAN_MOTION_DDOT": 0}, "tle": {"line1": "1 25994U 99068A   25357.91949455  .00000477  00000+0  10654-3 0  9995", "line2": "2 25994  97.9732  49.1928 0003454  72.2922 100.5370 14.60913945384015"}}, "geometry": {"type": "Point", "coordinates": [15.629431741916832, 75.88564261250852]}}, {"type": "Feature", "properties": {"norad_id": 27004, "name": "MAROC-TUBSAT", "group": "resource", "lat": -76.4405074680631, "lon": -147.3842047345223, "alt_km": 996.7413924500952, "timestamp": "2025-12-24T05:51:19.262090+00:00", "meta": {"OBJECT_NAME": "MAROC-TUBSAT", "OBJECT_ID": "2001-056D", "EPOCH": "2025-12-23T18:03:42.605280", "MEAN_MOTION": 13.7025342, "ECCENTRICITY": 0.00192386, "INCLINATION": 99.7916, "RA_OF_ASC_NODE": 166.3905, "ARG_OF_PERICENTER": 230.9603, "MEAN_ANOMALY": 145.555, "EPHEMERIS_TYPE": 0, "CLASSIFICATION_TYPE": "U", "NORAD_CAT_ID": 27004, "ELEMENT_SET_NO": 999, "REV_AT_EPOCH": 20216, "BSTAR": 2.1393174e-05, "MEAN_MOTION_DOT": -2.8e-07, "MEAN_MOTION_DDOT": 0}, "tle": {"line1": "1 27004U 01056D   25357.75257645 -.00000028  00000+0  21393-4 0  9990", "line2": "2 27004  99.7916 166.3905 0019238 230.9603 145.5550 13.70253420202165"}}, "geometry": {"type": "Point", "coordinates": [-147.3842047345223, -76.4405074680631]}}, {"type": "Feature", "properties": {"norad_id": 27424, "name": "AQUA", "group": "resource", "lat": -8.526489992902363, "lon": -39.41889952259666, "alt_km": 691.7781735701465, "timestamp": "2025-12-24T05:51:19.262101+00:00", "meta": {"OBJECT_NAME": "AQUA", "OBJECT_ID": "2002-022A", "EPOCH": "2025-12-23T20:08:03.450912", "MEAN_MOTION": 14.61824731, "ECCENTRICITY": 0.00015094, "INCLINATION": 98.4053, "RA_OF_ASC_NODE": 318.8992, "ARG_OF_PERICENTER": 108.9448, "MEAN_ANOMALY": 272.2576, "EPHEMERIS_TYPE": 0, "CLASSIFICATION_TYPE": "U", "NORAD_CAT_ID": 27424, "ELEMENT_SET_NO": 999, "REV_AT_EPOCH": 25765, "BSTAR": 0.00020597954, "MEAN_MOTION_DOT": 9.8e-06, "MEAN_MOTION_DDOT": 0}, "tle": {"line1": "1 27424U 02022A   25357.83892883  .00000980  00000+0  20598-3 0  9999", "line2": "2 27424  98.4053 318.8992 0001509 108.9448 272.2576 14.61824731257652"}}, "geometry": {"type": "Point", "coordinates": [-39.41889952259666, -8.526489992902363]}}, {"type": "Feature", "properties": {"norad_id": 28051, "name": "IRS-P6 (RESOURCESAT-1)", "group": "resource", "lat": -51.18224073670627, "lon": -152.22866848874358, "alt_km": 774.4960681379089, "timestamp": "2025-12-24T05:51:19.262111+00:00", "meta": {"OBJECT_NAME": "IRS-P6 (RESOURCESAT-1)", "OBJECT_ID": "2003-046A", "EPOCH": "2025-12-24T00:17:46.284000", "MEAN_MOTION": 14.36079228, "ECCENTRICITY": 0.00648233, "INCLINATION": 98.216, "RA_OF_ASC_NODE": 37.896, "ARG_OF_PERICENTER": 147.0019, "MEAN_ANOMALY": 327.2918, "EPHEMERIS_TYPE": 0, "CLASSIFICATION_TYPE": "U", "NORAD_CAT_ID": 28051, "ELEMENT_SET_NO": 999, "REV_AT_EPOCH": 15538, "BSTAR": 3.6632534e-05, "MEAN_MOTION_DOT": 6.9e-07, "MEAN_MOTION_DDOT": 0}, "tle": {"line1": "1 28051U 03046A   25358.01234125  .00000069  00000+0  36633-4 0  9999", "line2": "2 28051  98.2160  37.8960 0064823 147.0019 327.2918 14.36079228155388"}}, "geometry": {"type": "Point", "coordinates": [-152.22866848874358, -51.18224073670627]}}, {"type": "Feature", "properties": {"norad_id": 28220, "name": "SHIYAN-1 (SY-1)", "group": "resource", "lat": -41.628795808488974, "lon": 67.54362236153567, "alt_km": 484.46853243451824, "timestamp": "2025-12-24T05:51:19.262123+00:00", "meta": {"OBJECT_NAME": "SHIYAN-1 (SY-1)", "OBJECT_ID": "2004-012A", "EPOCH": "2025-12-23T19:02:25.804608", "MEAN_MOTION": 15.28418704, "ECCENTRICITY": 0.00051392, "INCLINATION": 97.8916, "RA_OF_ASC_NODE": 59.9851, "ARG_OF_PERICENTER": 278.9303, "MEAN_ANOMALY": 81.1353, "EPHEMERIS_TYPE": 0, "CLASSIFICATION_TYPE": "U", "NORAD_CAT_ID": 28220, "ELEMENT_SET_NO": 999, "REV_AT_EPOCH": 18425, "BSTAR": 0.00049913816, "MEAN_MOTION_DOT": 0.00013744, "MEAN_MOTION_DDOT": 0}, "tle": {"line1": "1 28220U 04012A   25357.79335422  .00013744  00000+0  49914-3 0  9996", "line2": "2 28220  97.8916  59.9851 0005139 278.9303  81.1353 15.28418704184254"}}, "geometry": {"type": "Point", "coordinates": [67.54362236153567, -41.628795808488974]}}, {"type": "Feature", "properties": {"norad_id": 28376, "name": "AURA", "group": "resource", "lat": 81.20695723750788, "lon": -122.56945868886136, "alt_km": 681.5974747247246, "timestamp": "2025-12-24T05:51:19.262134+00:00", "meta": {"OBJECT_NAME": "AURA", "OBJECT_ID": "2004-026A", "EPOCH": "2025-12-23T21:14:21.844320", "MEAN_MOTION": 14.60971138, "ECCENTRICITY": 0.00014042, "INCLINATION": 98.3201, "RA_OF_ASC_NODE": 308.1643, "ARG_OF_PERICENTER": 91.4562, "MEAN_ANOMALY": 268.6799, "EPHEMERIS_TYPE": 0, "CLASSIFICATION_TYPE": "U", "NORAD_CAT_ID": 28376, "ELEMENT_SET_NO": 999, "REV_AT_EPOCH": 14061, "BSTAR": 0.00022607343, "MEAN_MOTION_DOT": 1.06e-05, "MEAN_MOTION_DDOT": 0}, "tle": {"line1": "1 28376U 04026A   25357.88497505  .00001060  00000+0  22607-3 0  9992", "line2": "2 28376  98.3201 308.1643 0001404  91.4562 268.6799 14.60971138140611"}}, "geometry": {"type": "Point", "coordinates": [-122.56945868886136, 81.20695723750788]}}]}